IRIDIUM 159             
1 43578U 18061K   23294.49359032  .00000181  00000+0  57676-4 0  9992
2 43578  86.3914 101.9916 0002112  87.2747 272.8690 14.34216941274392
IRIDIUM 180             
1 43922U 19002A   23294.56285671  .00000497  00000+0  17057-3 0  9994
2 43922  86.4008  38.8108 0002359  95.5663 264.5801 14.34217633250017
IRIDIUM 176             
1 43923U 19002B   23294.32767376  .00002383  00000+0  37389-3 0  9992
2 43923  86.6121  38.9406 0003108 105.8854 254.2706 14.72262176256557
IRIDIUM 168             
1 43924U 19002C   23294.55651603  .00000503  00000+0  17253-3 0  9993
2 43924  86.4009  38.8633 0002319  93.0734 267.0727 14.34217772249995
IRIDIUM 173             
1 43925U 19002D   23294.54383179  .00000533  00000+0  18331-3 0  9994
2 43925  86.4005  38.7973 0002250  92.0572 268.0882 14.34217297249985
IRIDIUM 169             
1 43926U 19002E   23294.43609712  .00000793  00000+0  25278-3 0  9993
2 43926  86.4207  70.4582 0001603 335.7595  24.3527 14.38611785250808
IRIDIUM 172             
1 43927U 19002F   23294.53748617  .00000598  00000+0  20639-3 0  9992
2 43927  86.4005  38.8049 0002219  92.8487 267.2963 14.34218024249980
IRIDIUM 175             
1 43928U 19002G   23294.32155359  .00002380  00000+0  37333-3 0  9995
2 43928  86.1552  25.6535 0003921 113.4500 246.7129 14.72253451256547
